FENGYUN 1C DEB          
1 29970U 99025KU  25235.79283328  .00000878  00000+0  26145-3 0  9994
2 29970  98.7972 160.3579 0092449 158.5903 216.8246 14.43289054975203
FENGYUN 1C DEB          
1 29971U 99025KV  25235.71477381  .00001063  00000+0  54178-3 0  9995
2 29971  98.6998 277.8407 0024695 126.1981   0.8127 14.17669884957663
FENGYUN 1C DEB          
1 29972U 99025KW  25235.91222883  .00004971  00000+0  92123-3 0  9996
2 29972  98.9231 238.5982 0066602 354.6626  44.4995 14.64375491978634
FENGYUN 1C DEB          
1 29973U 99025KX  25235.74749641  .00000891  00000+0  55820-3 0  9994
2 29973  98.8410 238.7950 0060710 100.6476  77.2517 14.06165610951581
FENGYUN 1C DEB          
1 29974U 99025KY  25235.69894831  .00001931  00000+0  10275-2 0  9991
2 29974  98.8994 320.3087 0046470  38.5273 115.6370 14.14088094953551
FENGYUN 1C DEB          
1 29975U 99025KZ  25235.90168010 -.00000016  00000+0  21077-4 0  9997
2 29975  99.3560 274.9456 0113023 315.5874 224.5849 13.97959087948885
FENGYUN 1C DEB          
1 29976U 99025LA  25235.91651150 -.00000166  00000+0 -63808-4 0  9996
2 29976  98.9144 236.2236 0268865 185.8181 247.6723 13.97897941947886
FENGYUN 1C DEB          
1 29977U 99025LB  25235.12632072  .00000781  00000+0  47839-3 0  9998
2 29977  98.4081 105.3762 0127435 212.3445 300.6756 14.04548647947935
FENGYUN 1C DEB          
1 29978U 99025LC  25235.68446030  .00000128  00000+0  12327-3 0  9996
2 29978  99.0794 287.8424 0076011 356.6588 127.7059 13.95858438947674
FENGYUN 1C DEB          
1 29979U 99025LD  25235.84215160  .00000773  00000+0  32289-3 0  9998
2 29979  98.3836 263.9186 0108887 128.8134  49.7431 14.25598915964937
FENGYUN 1C DEB          
1 29980U 99025LE  25235.95082123  .00000438  00000+0  28119-3 0  9998
2 29980  98.5490  51.1920 0087413 200.8994 314.3243 14.06217671954359
FENGYUN 1C DEB          
1 29982U 99025LG  25235.90316464  .00002394  00000+0  40504-3 0  9998
2 29982  99.4002  41.1207 0124203 265.0463 255.3489 14.65599580986639
FENGYUN 1C DEB          
1 29985U 99025LK  25235.91828771  .00000053  00000+0  53519-4 0  9992
2 29985  98.7189 254.3857 0028972 162.8611 315.2621 14.10293362957860
FENGYUN 1C DEB          
1 29986U 99025LL  25235.66826091  .00001933  00000+0  79587-3 0  9998
2 29986  99.4064 294.7981 0023133 314.4857 197.5845 14.28079197959215
FENGYUN 1C DEB          
1 29987U 99025LM  25235.92423088  .00002227  00000+0  11773-2 0  9996
2 29987  98.9007 128.4220 0079762 184.9837 305.5669 14.13193982948073
FENGYUN 1C DEB          
1 29988U 99025LN  25235.85487907  .00003289  00000+0  81601-3 0  9996
2 29988  98.6947 336.3768 0124277 353.3462 122.4743 14.48012091964615
FENGYUN 1C DEB          
1 29989U 99025LP  25235.92782075  .00000197  00000+0  11305-3 0  9998
2 29989  98.6526 217.7880 0124302 153.1349 235.1971 14.15680970960437
FENGYUN 1C DEB          
1 29992U 99025LS  25235.91870058  .00000085  00000+0  67502-4 0  9997
2 29992  98.7248 234.0563 0089724 122.6249 303.4008 14.11545532958247
FENGYUN 1C DEB          
1 29993U 99025LT  25235.64145340 -.00000049  00000+0 -31262-5 0  9994
2 29993  98.8103 275.1234 0038188 266.5762  93.1039 14.08100548956061
FENGYUN 1C DEB          
1 29994U 99025LU  25235.94433959 -.00000148  00000+0 -64070-4 0  9996
2 29994  98.8439 271.4751 0130461 162.5745 268.5183 14.02552603951734
FENGYUN 1C DEB          
1 29996U 99025LW  25235.83407081  .00002375  00000+0  13012-2 0  9993
2 29996  99.3101 269.6077 0133872  36.3026  15.9888 14.08429932945752
FENGYUN 1C DEB          
1 29997U 99025LX  25235.96747591  .00000705  00000+0  49052-3 0  9990
2 29997  98.8724 249.5593 0080164 275.3690 142.8496 14.00526137948390
FENGYUN 1C DEB          
1 29998U 99025LY  25235.86898798  .00001241  00000+0  52142-3 0  9996
2 29998  99.3190 288.9524 0004202 244.9734 115.1009 14.27895926962927
FENGYUN 1C DEB          
1 29999U 99025LZ  25235.92040133  .00000703  00000+0  29316-3 0  9995
2 29999  98.5644 223.5735 0190957  87.5054 333.1376 14.19808164961513
FENGYUN 1C DEB          
1 30001U 99025MA  25235.68284149  .00004460  00000+0  15283-2 0  9992
2 30001  98.9644 306.1209 0039919  64.8992  86.1855 14.36264309958368
FENGYUN 1C DEB          
1 30003U 99025MC  25235.89036270  .00000330  00000+0  30383-3 0  9998
2 30003  99.5593 208.3737 0144599  53.9041   0.6324 13.85489046939534
FENGYUN 1C DEB          
1 30004U 99025MD  25235.46568065  .00000944  00000+0  49364-3 0  9994
2 30004  99.2252  52.4901 0037963 296.7805  90.9040 14.16603799957317
FENGYUN 1C DEB          
1 30005U 99025ME  25235.86667290  .00001218  00000+0  13091-2 0  9991
2 30005  99.2862 204.6039 0349230  14.2341 346.8339 13.51875386914485
FENGYUN 1C DEB          
1 30007U 99025MG  25235.94381082  .00002471  00000+0  10671-2 0  9997
2 30007  99.1815 132.2866 0065341 333.6938  87.0032 14.24289795957784
FENGYUN 1C DEB          
1 30008U 99025MH  25235.80328321  .00006362  00000+0  12506-2 0  9992
2 30008  99.3565 177.0897 0042759 167.3393 247.2222 14.62459589974361
FENGYUN 1C DEB          
1 30009U 99025MJ  25235.91823398  .00001016  00000+0  65449-3 0  9995
2 30009  99.0263 291.5504 0061679 283.0723  76.3564 14.04440002949274
FENGYUN 1C DEB          
1 30010U 99025MK  25235.50201721  .00000195  00000+0  10076-3 0  9995
2 30010  99.0776  63.9112 0073433 168.7808 246.9971 14.24889822966764
FENGYUN 1C DEB          
1 30012U 99025MM  25235.62936500  .00000171  00000+0  17507-3 0  9990
2 30012  99.4824 287.6535 0137537  81.3107  46.7645 13.85666208940095
FENGYUN 1C DEB          
1 30013U 99025MN  25235.90412265  .00000189  00000+0  18766-3 0  9996
2 30013  99.5890 252.3918 0127593 338.8045  97.4678 13.87730299941449
FENGYUN 1C DEB          
1 30015U 99025MQ  25235.94977016  .00001139  00000+0  45428-3 0  9993
2 30015  99.2254 232.1275 0039779  85.2367 328.8791 14.30248546965892
FENGYUN 1C DEB          
1 30016U 99025MR  25235.80202868  .00009323  00000+0  13816-2 0  9993
2 30016  98.9071 236.4182 0050521  31.0001 147.9385 14.74491411978164
